[{"OBJECT_NAME":"STARLINK-35318","OBJECT_ID":"2025-240A","EPOCH":"2026-03-09T10:02:30.052032","MEAN_MOTION":15.30199953,"ECCENTRICITY":0.00014143,"INCLINATION":53.159,"RA_OF_ASC_NODE":64.3109,"ARG_OF_PERICENTER":85.1595,"MEAN_ANOMALY":274.9567,"EPHEMERIS_TYPE":0,"CLASSIFICATION_TYPE":"U","NORAD_CAT_ID":66146,"ELEMENT_SET_NO":999,"REV_AT_EPOCH":2199,"BSTAR":0.0011580887,"MEAN_MOTION_DOT":0.00034098,"MEAN_MOTION_DDOT":0},{"OBJECT_NAME":"OBJECT N","OBJECT_ID":"2019-093N","EPOCH":"2026-03-09T21:41:56.087232","MEAN_MOTION":15.29897693,"ECCENTRICITY":0.0006278,"INCLINATION":98.0505,"RA_OF_ASC_NODE":226.9456,"ARG_OF_PERICENTER":33.3806,"MEAN_ANOMALY":326.7828,"EPHEMERIS_TYPE":0,"CLASSIFICATION_TYPE":"U","NORAD_CAT_ID":44891,"ELEMENT_SET_NO":999,"REV_AT_EPOCH":33957,"BSTAR":0.0010567776,"MEAN_MOTION_DOT":0.00030617,"MEAN_MOTION_DDOT":0}]
